     2.100          NAVIGATION                              RINEX VERSION / TYPE
fic2rin                                 08/22/2017 00:07:36 PGM / RUN BY / DATE
                                                            END OF HEADER
29 17  8 21  4  0  0.0  .572327058762D-03 -.420641299570D-11  .000000000000D+00
     .890000000000D+02  .572500000000D+02  .431732269096D-08 -.152864710414D+01
     .296719372272D-05  .573575962335D-03  .151246786118D-05  .515357958412D+04
     .100800000000D+06  .298023223877D-07  .126964105113D+01  .000000000000D+00
     .981535117380D+00  .362843750000D+03  .823096184231D+00 -.830070290045D-08
     .160720980388D-09  .100000000000D+01  .196300000000D+04  .000000000000D+00
     .340000000000D+01  .000000000000D+00 -.102445483208D-07  .890000000000D+02
     .936060000000D+05  .400000000000D+01
30 17  8 21  4  0  0.0  .144759658724D-03 -.193267624127D-11  .000000000000D+00
     .160000000000D+02 -.434062500000D+02  .504163857591D-08  .580094405272D+00
    -.234879553318D-05  .305711256806D-02  .885128974915D-05  .515363677406D+04
     .100800000000D+06  .223517417908D-07 -.824254413048D+00 -.316649675369D-07
     .947008021222D+00  .197031250000D+03 -.308178258795D+01 -.827320175492D-08
    -.813962476233D-09  .100000000000D+01  .196300000000D+04  .000000000000D+00
     .240000000000D+01  .000000000000D+00  .372529029846D-08  .160000000000D+02
     .936060000000D+05  .400000000000D+01
31 17  8 21  4  0  0.0  .180535018444D-03 -.250111042988D-11  .000000000000D+00
     .930000000000D+02 -.427812500000D+02  .459769151231D-08  .403660479634D+00
    -.236742198467D-05  .845770584419D-02  .854395329952D-05  .515376158524D+04
     .100800000000D+06  .875443220139D-07 -.850628972500D+00  .186264514923D-08
     .966009533535D+00  .216625000000D+03 -.246808171842D+00 -.810855203945D-08
    -.735744932444D-09  .100000000000D+01  .196300000000D+04  .000000000000D+00
     .240000000000D+01  .000000000000D+00 -.135041773319D-07  .930000000000D+02
     .936060000000D+05  .400000000000D+01
32 17  8 21  4  0  0.0 -.486694741994D-03 -.659383658785D-11  .000000000000D+00
     .420000000000D+02  .360312500000D+02  .520878839552D-08 -.226950458490D+01
     .189803540707D-05  .141913350672D-02  .488944351673D-05  .515374545097D+04
     .100800000000D+06  .108033418655D-06 -.193723545843D+01 -.316649675369D-07
     .957412489170D+00  .283281250000D+03 -.252725706341D+01 -.844320883640D-08
     .379301513716D-09  .100000000000D+01  .196300000000D+04  .000000000000D+00
     .240000000000D+01  .000000000000D+00  .931322574615D-09  .420000000000D+02
     .936060000000D+05  .400000000000D+01
 4 17  8 21  4  0  0.0  .130627304316D-04  .579802872380D-11  .000000000000D+00
     .990000000000D+02  .802812500000D+02  .476198407004D-08 -.262796162442D+01
     .418722629547D-05  .122952616075D-01  .164285302162D-05  .515366271782D+04
     .100800000000D+06 -.372529029846D-08  .111773305096D+01 -.134110450745D-06
     .956611433266D+00  .346437500000D+03  .432992794654D+00 -.838606359892D-08
     .326085011321D-09  .100000000000D+01  .196300000000D+04  .000000000000D+00
     .240000000000D+01  .630000000000D+02 -.558793544769D-08  .990000000000D+02
     .987660000000D+05  .400000000000D+01
 1 17  8 21  6  0  0.0  .559412874281D-04 -.341060513165D-12  .000000000000D+00
     .310000000000D+02 -.127406250000D+03  .426482050404D-08  .228760012960D+01
    -.666081905365D-05  .700457184575D-02  .639073550701D-05  .515368560410D+04
     .108000000000D+06 -.121071934700D-06  .226458222837D+01 -.633299350739D-07
     .968339543640D+00  .260593750000D+03  .607797430391D+00 -.812105256015D-08
    -.380015829185D-09  .100000000000D+01  .196300000000D+04  .000000000000D+00
     .240000000000D+01  .000000000000D+00  .558793544769D-08  .310000000000D+02
     .100806000000D+06  .400000000000D+01
 2 17  8 21  6  0  0.0  .349240843207D-03 -.875388650456D-11  .000000000000D+00
     .150000000000D+02 -.151468750000D+03  .469269546960D-08  .265447178614D+01
    -.774860382080D-05  .170055550989D-01  .477209687233D-05  .515357088470D+04
     .108000000000D+06  .169500708580D-06  .220938246421D+01 -.124797224998D-06
     .947261018275D+00  .276281250000D+03 -.196162552562D+01 -.814748223248D-08
    -.407159816984D-09  .100000000000D+01  .196300000000D+04  .000000000000D+00
     .240000000000D+01  .000000000000D+00 -.204890966415D-07  .150000000000D+02
     .100806000000D+06  .400000000000D+01
 3 17  8 21  6  0  0.0 -.764057040215D-04  .386535248253D-11  .000000000000D+00
     .290000000000D+02 -.122187500000D+02  .418267422517D-08  .143921579131D+01
    -.888481736183D-06  .917073688470D-03  .128466635942D-04  .515368228340D+04
     .108000000000D+06 -.633299350739D-07 -.297642962961D+01 -.149011611938D-07
     .960579020703D+00  .130406250000D+03  .327562895601D+00 -.778318134360D-08
     .457876215239D-09  .100000000000D+01  .196300000000D+04  .000000000000D+00
     .240000000000D+01  .000000000000D+00  .232830643654D-08  .290000000000D+02
     .100806000000D+06  .400000000000D+01
 4 17  8 21  6  0  0.0  .131041742861D-04  .579802872380D-11  .000000000000D+00
     .100000000000D+03  .811875000000D+02  .473519723997D-08 -.157764913247D+01
     .429525971413D-05  .122944916366D-01  .229291617870D-05  .515366590309D+04
     .108000000000D+06  .875443220139D-07  .111767260757D+01 -.167638063431D-06
     .956613842692D+00  .334031250000D+03  .432868791866D+00 -.841213611352D-08
     .316084594764D-09  .100000000000D+01  .196300000000D+04  .000000000000D+00
     .240000000000D+01  .630000000000D+02 -.558793544769D-08  .100000000000D+03
     .100806000000D+06  .400000000000D+01
 5 17  8 21  6  0  0.0 -.324281863868D-04  .147792889038D-11  .000000000000D+00
     .860000000000D+02 -.324375000000D+02  .443232748137D-08 -.108365983245D+01
    -.158697366714D-05  .518217741046D-02  .128559768200D-04  .515381905937D+04
     .108000000000D+06  .137835741043D-06 -.299441992760D+01  .745058059692D-08
     .947523960245D+00  .117750000000D+03  .577807002655D+00 -.792568727955D-08
     .502163774280D-09  .100000000000D+01  .196300000000D+04  .000000000000D+00
     .240000000000D+01  .000000000000D+00 -.107102096081D-07  .860000000000D+02
     .100806000000D+06  .400000000000D+01
 6 17  8 21  6  0  0.0  .390266068280D-03  .363797880709D-11  .000000000000D+00
     .700000000000D+02 -.135093750000D+03  .423839083170D-08  .236271366862D+01
    -.683218240738D-05  .602857209742D-03  .619329512119D-05  .515373564911D+04
     .108000000000D+06 -.353902578354D-07  .225621625484D+01  .577419996262D-07
     .968092347058D+00  .262468750000D+03 -.103746965994D+01 -.813783897366D-08
    -.412160025262D-09  .100000000000D+01  .196300000000D+04  .000000000000D+00
     .240000000000D+01  .000000000000D+00  .465661287308D-08  .700000000000D+02
     .100806000000D+06  .400000000000D+01
 7 17  8 21  6  0  0.0  .312975142151D-03 -.477484718431D-11  .000000000000D+00
     .110000000000D+03 -.395312500000D+02  .484913055718D-08  .166227569275D+01
    -.195391476154D-05  .110106990905D-01  .917166471481D-05  .515372272491D+04
     .108000000000D+06 -.191852450371D-06 -.861996685691D+00  .212341547012D-06
     .961267036928D+00  .207500000000D+03 -.257055026167D+01 -.818391232137D-08
    -.687528638327D-09  .100000000000D+01  .196300000000D+04  .000000000000D+00
     .340000000000D+01  .000000000000D+00 -.111758708954D-07  .110000000000D+03
     .100806000000D+06  .400000000000D+01
 8 17  8 21  6  0  0.0 -.706384889781D-04 -.136424205266D-11  .000000000000D+00
     .270000000000D+02  .688125000000D+02  .463805033627D-08 -.129650988233D+01
     .368990004063D-05  .256039155647D-02  .158138573170D-05  .515367465019D+04
     .108000000000D+06 -.149011611938D-07  .120059331175D+01  .447034835815D-07
     .967139845485D+00  .353781250000D+03 -.624637776751D+00 -.846392398498D-08
     .199651173416D-09  .100000000000D+01  .196300000000D+04  .000000000000D+00
     .240000000000D+01  .000000000000D+00  .558793544769D-08  .270000000000D+02
     .100806000000D+06  .400000000000D+01
 9 17  8 21  6  0  0.0  .428925734013D-03  .682121026330D-11  .000000000000D+00
     .850000000000D+02  .312500000000D+02  .533272212928D-08 -.164863568157D+01
     .175274908543D-05  .668339547701D-03  .494346022606D-05  .515355964661D+04
     .108000000000D+06  .558793544769D-08 -.194092181889D+01  .931322574615D-08
     .952952063650D+00  .284156250000D+03  .187944303624D+01 -.845106630655D-08
     .444304221340D-09  .100000000000D+01  .196300000000D+04  .000000000000D+00
     .240000000000D+01  .000000000000D+00  .931322574615D-09  .850000000000D+02
     .100806000000D+06  .400000000000D+01
10 17  8 21  6  0  0.0  .430801883340D-04  .105728759081D-10  .000000000000D+00
     .440000000000D+02 -.267500000000D+02  .416945938901D-08  .214021398142D+00
    -.132992863655D-05  .268537551165D-02  .126436352730D-04  .515367996788D+04
     .108000000000D+06  .707805156708D-07 -.298008149592D+01  .558793544769D-07
     .960728298327D+00  .137843750000D+03 -.282143113307D+01 -.779853912617D-08
     .464662212189D-09  .100000000000D+01  .196300000000D+04  .000000000000D+00
     .240000000000D+01  .000000000000D+00  .186264514923D-08  .440000000000D+02
     .100806000000D+06  .400000000000D+01
11 17  8 21  6  0  0.0 -.710512045771D-03 -.250111042988D-11  .000000000000D+00
     .400000000000D+02 -.863437500000D+02  .599596404168D-08  .168897729778D+01
    -.488199293613D-05  .170707571087D-01  .586733222008D-06  .515372584915D+04
     .108000000000D+06  .283122062683D-06  .185622487762D+01 -.337138772011D-06
     .901689402640D+00  .334875000000D+03  .167921585547D+01 -.904894835359D-08
    -.269296931584D-09  .100000000000D+01  .196300000000D+04  .000000000000D+00
     .240000000000D+01  .000000000000D+00 -.121071934700D-07  .400000000000D+02
     .100806000000D+06  .400000000000D+01
